{"type":"Topology","bbox":[92.30323449093868,-10.359987481327956,141.03385176001382,28.335945136014345],"objects":{"countries":{"type":"GeometryCollection","geometries":[{"type":"MultiPolygon","arcs":[[[0]],[[1,2]],[[3]],[[4,5]],[[6]],[[7]],[[8]],[[9]],[[10]],[[11]],[[12]],[[13]],[[14]]],"properties":{"name":"Indonesia","ADM0_A3":"IDN"}},{"type":"Polygon","arcs":[[15,-2]],"properties":{"name":"East Timor","ADM0_A3":"TLS"}},{"type":"Polygon","arcs":[[16,17,18,19]],"properties":{"name":"Cambodia","ADM0_A3":"KHM"}},{"type":"Polygon","arcs":[[-17,20,21,22,23,24]],"properties":{"name":"Thailand","ADM0_A3":"THA"}},{"type":"Polygon","arcs":[[-18,-25,25,26,27]],"properties":{"name":"Laos","ADM0_A3":"LAO"}},{"type":"Polygon","arcs":[[-24,28,-26]],"properties":{"name":"Myanmar","ADM0_A3":"MMR"}},{"type":"Polygon","arcs":[[-19,-28,29]],"properties":{"name":"Vietnam","ADM0_A3":"VNM"}},{"type":"MultiPolygon","arcs":[[[30]],[[31]],[[32]],[[33]],[[34]],[[35]],[[36]]],"properties":{"name":"Philippines","ADM0_A3":"PHL"}},{"type":"MultiPolygon","arcs":[[[-22,37]],[[-6,38,39,40]]],"properties":{"name":"Malaysia","ADM0_A3":"MYS"}},{"type":"Polygon","arcs":[[-40,41]],"properties":{"name":"Brunei","ADM0_A3":"BRN"}}]}},"arcs":[[[141.00021040259185,-2.60015105551566],[141.03385176001382,-9.117892754760483],[140.14341515519254,-8.29716765710095],[139.1277665549281,-8.096042982620979],[138.881476678625,-8.380935153846075],[137.61447391169287,-8.41168263105974],[138.03909915583517,-7.597882175327321],[138.66862145401478,-7.320224704623087],[138.4079138531023,-6.232849216337485],[137.92783979711078,-5.393365573756],[135.98925011611345,-4.54654387778907],[135.16459760959975,-4.462931410340822],[133.66288048719787,-3.538853448097541],[133.36770470594672,-4.024818617370315],[132.98395551974727,-4.112978610860253],[132.75694095268904,-3.7462826473171233],[132.75378869031925,-3.3117872046070502],[131.98980431531618,-2.820551039240499],[133.0668445171434,-2.460417982598436],[133.78003095920354,-2.4798483211401816],[133.69621178602614,-2.214541517753702],[132.23237348849426,-2.2125261368943185],[131.83622195854474,-1.6171619604596472],[130.94283979708285,-1.4325220678807826],[130.5195581401801,-0.9377202286860893],[131.8675378765136,-0.6954611141017892],[132.3801164084167,-0.36953785563694913],[133.98554813042836,-0.7802104630604559],[134.14336795464772,-1.151867364103623],[134.42262739475302,-2.769184665542376],[135.45760298069467,-3.367752780779149],[136.29331424371884,-2.307042331556154],[137.44073774632756,-1.7035132788193648],[138.3297274110447,-1.7026864559026933],[139.18492068904288,-2.0512956681436734],[139.92668419816044,-2.409051608900313],[141.00021040259185,-2.60015105551566]],[[124.96868248911623,-8.892790215697083],[125.07001997284061,-9.089987481322872],[125.08852013560109,-9.393173109579294]],[[125.08852013560109,-9.393173109579294],[124.43595014861933,-10.140000909061449],[123.57998172413669,-10.359987481327956],[123.459989048355,-10.239994805546223],[123.55000939340744,-9.900015557497987],[123.9800089865081,-9.290026950724716],[124.96868248911623,-8.892790215697083]],[[134.21013390516885,-6.89523772545472],[134.11277550673094,-6.142467136259],[134.29033572808584,-5.783057549669017],[134.49962527886788,-5.445042006047871],[134.72700158095216,-5.737582289252167],[134.7246244650667,-6.214400730009288],[134.21013390516885,-6.89523772545472]],[[117.88203494677018,4.137551377779516],[117.3132324565335,3.234428208830593],[118.0483297058854,2.2876901310273325],[117.87562706916597,1.8276406925489255],[118.99674726773816,0.9022191430660627],[117.8118583517178,0.7842418481437078],[117.47833865770603,0.10247467691702639],[117.52164350796664,-0.8037232397532676],[116.56004845587947,-1.4876608211362097],[116.5337968282752,-2.483517347832901],[116.14808393764866,-4.012726332214022],[116.00085778204911,-3.6570374487490582],[114.86480309454456,-4.106984144714396],[114.46865156459506,-3.495703627133828],[113.75567182826407,-3.4391696102065197],[113.25699425664752,-3.118775729996905],[112.06812625534067,-3.4783920223160507],[111.70329064336005,-2.9944422339026535],[111.04824018762824,-3.0494259578612106],[110.223846063276,-2.9340324845534553],[110.07093550012434,-1.5928740372824635],[109.571947869914,-1.3149065079844746],[109.0918738139225,-0.45950652425709393],[108.9526575053282,0.41537547444431766],[109.06913618371408,1.3419339054376138],[109.66326012577375,2.0064669864949565]],[[109.66326012577375,2.0064669864949565],[109.83022667850881,1.3381356876641632],[110.51406090702716,0.7731314152009645],[111.15913781132662,0.976478176269481],[111.79754845586041,0.9044412296546085],[112.38025190638359,1.4101209578467433],[112.85980919805218,1.4977900252299037],[113.8058496440195,1.2175487329110695],[114.62135542201753,1.4306881778989011],[115.13403730678522,2.8214818383862337],[115.51907840379198,3.169238389494396],[115.8655172058767,4.3065591495901],[117.01521447150628,4.3060940616994685],[117.88203494677018,4.137551377779516]],[[129.37099775606094,-2.8021542293445947],[130.47134402885177,-3.093764336767634],[130.83483605359282,-3.8584721818227763],[129.99054650280817,-3.446300957862796],[129.15524865124235,-3.3626368139822485],[128.59068362845363,-3.428679294451264],[127.89889122936235,-3.393435967628207],[128.13587934785284,-2.843650404474971],[129.37099775606094,-2.8021542293445947]],[[126.87492272349886,-3.7909827612495874],[126.18380211802736,-3.607376397316564],[125.98903364471926,-3.177273451351305],[127.00065148326497,-3.129317722184446],[127.24921512258891,-3.45906503663889],[126.87492272349886,-3.7909827612495874]],[[127.93237755748748,2.1745962589565693],[128.00415612194087,1.6285313989283452],[128.5945593608755,1.5408106551128782],[128.6882487326207,1.1323859724940633],[128.63595218314134,0.2584858260061935],[128.1201697124361,0.3564126651992865],[127.96803429576886,-0.25207732503751856],[128.3799988139997,-0.7800037573313005],[128.1000159038423,-0.8999964331130315],[127.69647464407507,-0.26659840251153355],[127.39949018769369,1.011721503092545],[127.60051150930906,1.810690822757195],[127.93237755748748,2.1745962589565693]],[[122.9275667664518,0.8751923689774088],[124.07752241424288,0.9171019555661245],[125.0659892111218,1.6432591821315297],[125.2405005229715,1.4198361271176054],[124.4370353536974,0.4278811710589565],[123.6855049988767,0.235593166500891],[122.72308312387287,0.4311367862933366],[121.05672488818911,0.3812173526993945],[120.18308312386272,0.2372468123342344],[120.04086958219548,-0.5196578914448367],[120.93590538949073,-1.408905938323393],[121.4758207540762,-0.9559620092851304],[123.34056481332846,-0.6156727026431383],[123.25839928598441,-1.0762130672283092],[122.82271528533161,-0.9309506160558526],[122.38852990121529,-1.516858005381117],[121.50827355355551,-1.904482924002458],[122.4545723816843,-3.1860584448409237],[122.2718961935325,-3.5295000138527115],[123.17096276254655,-4.683693129091701],[123.1623327983538,-5.340603936385996],[122.62851525277875,-5.634591159694466],[122.23639448454801,-5.2829330379482675],[122.71956912647701,-4.464171644715826],[121.73823367725436,-4.851331475446543],[121.48946333220127,-4.574552504091265],[121.61917117725386,-4.1884778784386825],[120.89818159391766,-3.602105401222794],[120.97238895068878,-2.627642917494939],[120.30545291552986,-2.9316036922357327],[120.39004723519167,-4.097579034037274],[120.43071658740537,-5.528241062037793],[119.79654341031949,-5.673400160345665],[119.36690555224489,-5.3798780249278195],[119.65360639860017,-4.459417412944973],[119.49883548388601,-3.4944117163265322],[119.07834435432704,-3.487021986508793],[118.76776899625287,-2.801999200047718],[119.18097374885869,-2.1471037736128054],[119.3233939962551,-1.3531470678804638],[119.82599897672587,0.1542544620734816],[120.0357019389663,0.5664773624657613],[120.88577925016762,1.3092227237968501],[121.66681684782696,1.0139435896810909],[122.9275667664518,0.8751923689774088]],[[120.29501427620689,-10.258649997603591],[118.96780846565471,-9.557969252158074],[119.90030968636157,-9.361340427287502],[120.42575564990534,-9.665921319215798],[120.77550174365675,-9.96967538822743],[120.71560875863045,-10.239581394087885],[120.29501427620689,-10.258649997603591]],[[121.34166873584651,-8.536739597206072],[122.00736453663043,-8.460620212440148],[122.90353722543607,-8.094234307490765],[122.75698286345632,-8.649807631060696],[121.2544905945701,-8.933666273639957],[119.92439090380958,-8.81041798262384],[119.92092858284605,-8.444858900591122],[120.71509199430757,-8.236964613480914],[121.34166873584651,-8.536739597206072]],[[118.26061648974044,-8.362383314653293],[118.87845991422208,-8.280682875199844],[119.12650678922307,-8.705824883665088],[117.97040164598928,-8.906639499551304],[117.27773074754901,-9.040894870645594],[116.74014082241665,-9.032936700072646],[117.0837374207253,-8.45715789147659],[117.6320243673421,-8.449303073768228],[117.90001834520776,-8.09568124759494],[118.26061648974044,-8.362383314653293]],[[108.48684614464926,-6.42198495852574],[108.62347863162896,-6.777673841990705],[110.53922732955328,-6.877357679881726],[110.75957563684585,-6.465186455921747],[112.6148112325564,-6.946035658397626],[112.97876834518806,-7.594213148634594],[114.47893517462114,-7.7765276017603275],[115.70552697150106,-8.370806573116873],[114.56451134649649,-8.751816908404855],[113.46473351446085,-8.348947442257405],[112.55967247930097,-8.376180922075221],[111.52206139531245,-8.302128594600973],[110.58614953007432,-8.122604668819001],[109.42766727095511,-7.740664157749762],[108.69365522668133,-7.641600437046243],[108.27776329959633,-7.766657403192576],[106.45410200401612,-7.354899590690934],[106.28062422081231,-6.924899997590252],[105.36548628135552,-6.851416110871206],[106.05164594932702,-5.895918877794472],[107.2650085795402,-5.954985039904081],[108.07209109907467,-6.3457622208952245],[108.48684614464926,-6.42198495852574]],[[104.36999148968489,-1.0848430314210589],[104.53949018760221,-1.7823715144967662],[104.88789269411402,-2.340425306816705],[105.62211144411697,-2.4288436824680986],[106.10859337771265,-3.0617766251789647],[105.85744591677414,-4.305524997579774],[105.8176550639094,-5.85235564537242],[104.71038414919144,-5.873284600450632],[103.86821333213078,-5.037314955264996],[102.5842606954069,-4.2202588842981825],[102.156173130301,-3.6141460099468006],[101.39911339722507,-2.7997771134591645],[100.90250288290015,-2.050262139497832],[100.14198082886065,-0.6503475887109857],[99.26373986206028,0.1831415877246343],[98.97001102091326,1.042882391764536],[98.60135135294306,1.8235065779655741],[97.69959760944985,2.45318390544206],[97.17694217324984,3.3087905948985963],[96.42401655475726,3.868859768077925],[95.3808760925135,4.970782172053688],[95.29302615761729,5.479820868344788],[95.93686282754174,5.439513251157123],[97.4848820332771,5.246320909033955],[98.36916914265566,4.2683702661263965],[99.1425586283358,3.590349636240873],[99.69399783732241,3.174328518075143],[100.64143354696162,2.099381211755741],[101.65801232300734,2.0836974145551608],[102.49827111207323,1.3987004663102311],[103.07684044801303,0.5613613956688681],[103.83839603069836,0.10454173420869493],[103.4376452982749,-0.7119458960029021],[104.01078860882404,-1.0592115210042863],[104.36999148968489,-1.0848430314210589]],[[124.96868248911623,-8.892790215697083],[125.08624637258026,-8.65688730228468],[125.94707238169826,-8.432094821815035],[126.64470421763855,-8.398246758663852],[126.95724328013983,-8.273344821814398],[127.33592817597463,-8.397316582882603],[126.96799197805655,-8.668256117388893],[125.9258850444586,-9.106007175333353],[125.08852013560109,-9.393173109579294]],[[102.5849324890267,12.186594956913282],[102.34809939983302,13.394247341358223],[102.98842207236163,14.225721136934467],[104.28141808473661,14.416743068901367],[105.21877689007889,14.273211778210694]],[[105.21877689007889,14.273211778210694],[106.04394616091552,13.881091009979956],[106.49637332563088,14.570583807834282],[107.38272749230109,14.202440904186972]],[[107.38272749230109,14.202440904186972],[107.61454796756243,13.535530707244206],[107.49140302941089,12.337205918827948],[105.81052371625313,11.567614650921229],[106.24967003786946,10.961811835163587],[105.19991499229235,10.889309800658097],[104.33433475140347,10.48654368737523]],[[104.33433475140347,10.48654368737523],[103.4972799011397,10.632555446815928],[103.09068973186726,11.153660590047165],[102.5849324890267,12.186594956913282]],[[102.5849324890267,12.186594956913282],[101.68715783081996,12.645740057826572],[100.83180952352487,12.627084865769206],[100.9784672383692,13.412721665902566],[100.09779747925111,13.406856390837433],[100.01873253784456,12.307001044153354],[99.15377241414316,9.963061428258555],[99.22239871622676,9.239255479362427],[99.87383182169813,9.20786204674512],[100.27964684448622,8.295152899606052],[100.45927412313276,7.429572658717177],[101.01732791545273,6.856868597842478],[101.62307905477806,6.74062246340192],[102.14118696493638,6.221636053894628]],[[102.14118696493638,6.221636053894628],[101.81428185425798,5.8108084171742425],[101.15421878459387,5.691384182147715],[101.07551557821336,6.2048670516159214],[100.25959638875696,6.6428248152895435],[100.0857568705271,6.4644894474502905]],[[100.0857568705271,6.4644894474502905],[99.69069054565576,6.8482127954335965],[99.51964155476963,7.34345388430276],[98.9882528015123,7.907993068875328],[98.503786248776,8.382305202666288],[98.339661899817,7.794511623562386],[98.15000939330582,8.350007432483878],[98.25915001830626,8.973922837759801],[98.55355065307305,9.932959906448545]],[[98.55355065307305,9.932959906448545],[99.03812055867398,10.960545762572437],[99.58728600463972,11.892762762901697],[99.19635379435167,12.80474843998867],[99.21201175333609,13.269293728076464],[99.09775516153876,13.827502549693278],[98.43081912637987,14.622027696180837],[98.1920740091914,15.123702500870351],[98.53737592976572,15.308497422746084],[98.90334842325676,16.17782420497612],[98.49376102091135,16.83783559820793],[97.85912275593486,17.567946071843664],[97.37589643757354,18.445437730375815],[97.79778283080441,18.627080389881755],[98.25372399291561,19.708203029860044],[98.95967573445488,19.752980658440947],[99.54330936075931,20.186597601802063],[100.11598758341785,20.417849636308187]],[[100.11598758341785,20.417849636308187],[100.54888105672688,20.109237982661128],[100.60629357300316,19.508344427971224],[101.2820146016517,19.462584947176765],[101.03593143107777,18.408928330961615],[101.05954756063517,17.51249725999449],[102.11359175009248,18.109101670804165],[102.41300499879162,17.932781683824288],[102.99870568238771,17.9616946476916],[103.20019209189374,18.309632066312773],[103.9564766784853,18.24095408779688],[104.7169470560925,17.42885895433008],[104.7793205098688,16.44186493577145],[105.58903852745016,15.570316066952858],[105.54433841351769,14.723933620660418],[105.21877689007889,14.273211778210694]],[[100.11598758341785,20.417849636308187],[100.32910119018953,20.786121731036232],[101.18000532430754,21.436572984294028]],[[101.18000532430754,21.436572984294028],[101.27002566935997,21.201651923095184],[101.80311974488293,21.17436676684507],[101.65201785686152,22.318198757409547],[102.17043582561358,22.464753119389304]],[[102.17043582561358,22.464753119389304],[102.75489627483466,21.675137233969465],[103.20386111858645,20.76656220141375],[104.43500044150805,20.75873322192153],[104.8225736836971,19.886641750563882],[104.18338789267894,19.62466807706022],[103.89653201702671,19.265180975821806],[105.09459842328152,18.66697459561108],[105.92576216026403,17.48531545660896],[106.55600792849569,16.604283962464805],[107.3127059265456,15.90853831630318],[107.5645251811039,15.20217316330556],[107.38272749230109,14.202440904186972]],[[98.55355065307305,9.932959906448545],[98.45717410684873,10.67526601810515],[98.76454552612078,11.441291612183749],[98.42833865762985,12.032986761925685],[98.50957400919268,13.122377631070677],[98.1036039571077,13.640459703012851],[97.77773237507517,14.837285874892642],[97.59707156778276,16.10056793869977],[97.1645398294998,16.92873444260934],[96.505768670643,16.42724050543285],[95.3693522481124,15.7143899601826],[94.80840457558412,15.80345429123764],[94.18880415240454,16.037936102762018],[94.53348595579135,17.277240301985728],[94.32481652219676,18.2135139022499],[93.54098839719364,19.366492621330025],[93.66325483599621,19.726961574781996],[93.07827762245219,19.855144965081976],[92.36855350135562,20.670883287025347],[92.30323449093868,21.47548533780982],[92.65225711463799,21.324047552978485],[92.67272098182556,22.041238918541254],[93.16612755734837,22.278459580977103],[93.06029422401463,22.70311066333557],[93.28632693885928,23.043658352139005],[93.3251876159428,24.078556423432204],[94.10674197792507,23.85074087167348],[94.55265791217164,24.675238348890336],[94.60324913938538,25.162495428970402],[95.1551534362626,26.001307277932085],[95.12476769407496,26.5735720891323],[96.41936567585097,27.264589341739224],[97.1339990580153,27.083773505149964],[97.0519885599681,27.69905894623315],[97.40256147663614,27.882536119085444],[97.32711388549004,28.26158274994634],[97.91198774616944,28.335945136014345],[98.2462309102333,27.74722138112918],[98.68269005737046,27.50881216075062],[98.71209394734451,26.743535874940267],[98.67183800658916,25.918702500913525],[97.72460900267914,25.083637193293],[97.60471967976198,23.897404690033042],[98.66026248575577,24.063286037689966],[98.89874922078278,23.14272207284253],[99.5319922220874,22.94903880461258],[99.24089887898725,22.11831431730458],[99.98348921102149,21.7429367131364],[100.41653771362738,21.558839423096614],[101.15003299357825,21.849984442629022],[101.18000532430754,21.436572984294028]],[[102.17043582561358,22.464753119389304],[102.7069922221001,22.708795070887675],[103.50451460166056,22.70375661873921],[104.47685835166448,22.819150092046968],[105.32920942588663,23.352063300056912],[105.81124718630522,22.976892401617903],[106.72540327354847,22.79426788989842],[106.56727339073532,22.21820486092477],[107.04342003787264,21.811898912029914],[108.05018029178294,21.55237986906012],[106.7150679870901,20.69685069425202],[105.88168216351903,19.752050482659698],[105.66200564984631,19.05816518806057],[106.42681684776602,18.004120998603227],[107.36195356651974,16.697456569887052],[108.26949507042963,16.07974233648615],[108.87710656131748,15.27669057867044],[109.33526981001722,13.426028347217724],[109.20013593957398,11.666859239137764],[108.36612999881545,11.008320624226272],[107.22092858279524,10.364483954301832],[106.40511274620343,9.53083974856932],[105.15826378786511,8.599759629750494],[104.79518517458239,9.241038316276502],[105.07620161338562,9.918490505406808],[104.33433475140347,10.48654368737523]],[[120.83389611214656,12.704496161342433],[120.32343631396745,13.466413479053825],[121.18012820850211,13.429697373910443],[121.5273938335035,13.06959015548452],[121.26219038298159,12.205560207564403],[120.83389611214656,12.704496161342433]],[[122.5860889018671,9.981044826696134],[122.83708133350875,10.261156927934225],[122.9474105164519,10.88186839440806],[123.49884972543845,10.94062449792392],[123.33777428598472,10.267383938025404],[124.0779358257012,11.232725531453738],[123.98243777882584,10.278778591345755],[123.62318322153271,9.950090643753299],[123.30992068897939,9.318268744336706],[122.99588300994166,9.022188625520414],[122.38005496631942,9.713360907424217],[122.5860889018671,9.981044826696134]],[[126.37681359263745,8.414706325713297],[126.47851281138789,7.750354112168978],[126.53742394420061,7.189380601424545],[126.19677290253259,6.274294338400054],[125.83142052622907,7.293715318221842],[125.36385216685221,6.786485297060949],[125.68316084198369,6.049656887227272],[125.39651167206063,5.5810033227722755],[124.21978763234239,6.161355495626154],[123.9387195171069,6.885135606306136],[124.24366214406128,7.360610459823661],[123.61021243702749,7.83352732994274],[123.29607140512519,7.418875637232759],[122.82550581267537,7.457374579290204],[122.08549930225573,6.899424139834836],[121.91992801319256,7.192119452336015],[122.31235884001705,8.034962063016465],[122.94239790251959,8.316236883981134],[123.48768761606347,8.69300975182118],[123.84115441293983,8.240324204944372],[124.60146976125021,8.514157619659002],[124.76461225799562,8.960409450715488],[125.47139082245155,8.986996975129657],[125.41211795461277,9.760334784377534],[126.2227144715431,9.286074327018866],[126.30663699758514,8.78248749433456],[126.37681359263745,8.414706325713297]],[[118.50458092659036,9.316382554558047],[117.17427453010066,8.367499904814679],[117.66447716682137,9.066888739452892],[118.38691369026175,9.68449961998921],[118.98734215706105,10.376292019080523],[119.51149620979751,11.3696680770272],[119.68967654833989,10.554291490109875],[119.02945844937892,10.003653265823829],[118.50458092659036,9.316382554558047]],[[122.336956821788,18.224882717354106],[122.17427941293317,17.810282701076403],[122.5156539246533,17.093504746971973],[122.25231082569393,16.26244436285407],[121.66278608610821,15.931017564350142],[121.50506961475342,15.124813544164622],[121.7288285665772,14.328376369682275],[122.25892540902726,14.21820221603599],[122.70127566944569,14.336541245984378],[123.9502950379403,13.782130642141027],[123.85510704965867,13.237771104378425],[124.18128869028493,12.9975273706535],[124.0774190613783,12.536676947474575],[123.29803510955225,13.02752553959894],[122.92865197152994,13.552919826710422],[122.6713550151487,13.185836289925092],[122.03464969288052,13.784481919810304],[121.12638471891857,13.636687323455547],[120.62863732308324,13.857655747935596],[120.67938357959386,14.271015529838294],[120.99181928923053,14.52539276779504],[120.69333621631267,14.756670640517312],[120.56414513558299,14.396279201713796],[120.07042850146644,14.970869452367126],[119.92092858284605,15.406346747290739],[119.88377322802819,16.363704331929995],[120.28648766487875,16.034628811095345],[120.39004723519167,17.599081122299523],[120.71586714079191,18.505227362537525],[121.32130822152351,18.504064642810945],[121.9376013530364,18.218552354398355],[122.24600630095429,18.478949896717097],[122.336956821788,18.224882717354106]],[[122.03837039600555,11.415840969279998],[121.88354780485909,11.891755072471994],[122.48382124236149,11.582187404827538],[123.12021650603594,11.583660183147856],[123.10083784392646,11.16593374271649],[122.63771365772669,10.74130849857417],[122.00261030485957,10.441016750526089],[121.96736697803652,10.905691229694625],[122.03837039600555,11.415840969279998]],[[125.50255171112354,12.162694606978292],[125.78346479706221,11.046121934447783],[125.01188398651226,11.311454576050409],[125.03276126515817,10.975816148314692],[125.27744917206019,10.358722032101284],[124.80181928924577,10.134678859899864],[124.76016808481853,10.837995103392258],[124.45910119028605,10.889929917845592],[124.30252160044171,11.495370998577187],[124.89101281138153,11.415582587118536],[124.87799035044401,11.794189968304947],[124.26676150929569,12.557760931849671],[125.22711632700788,12.53572093347718],[125.50255171112354,12.162694606978292]],[[102.14118696493638,6.221636053894628],[102.37114708863521,6.128205064310919],[102.96170535686673,5.524495144061106],[103.38121463421217,4.8550011255037475],[103.43857547405612,4.181605536308339],[103.33212202353486,3.726697902842986],[103.42942874554049,3.3828687605890053],[103.50244754436889,2.7910185815501762],[103.8546741068703,2.515454006353764],[104.24793175661145,1.6311410587590842],[104.22881147666348,1.2930480004894918],[103.51970747275439,1.2263337264006822],[102.57361535035477,1.9671153833046873],[101.39063846232919,2.760813706875581],[101.27353966675582,3.270291652841152],[100.69543541870664,3.9391397159948696],[100.55740766805502,4.767280381688295],[100.19670617065775,5.312492580583708],[100.30626020711652,6.0405618351439045],[100.0857568705271,6.4644894474502905]],[[109.66326012577375,2.0064669864949565],[110.3961352885371,1.663774725751395],[111.16885298059748,1.8506367049188128],[111.37008100794205,2.6973033715888595],[111.7969283386729,2.885896511238059],[112.99561486211522,3.102394924324855],[113.71293541875868,3.8935094262811556],[114.20401655482837,4.5258739282368055]],[[114.20401655482837,4.5258739282368055],[114.65959598191353,4.007636826997754],[114.8695573263154,4.348313706881925],[115.34746097215066,4.316636053887009],[115.45071048386981,5.447729803891534]],[[115.45071048386981,5.447729803891534],[116.22074100145102,6.1431912296755655],[116.72510298061971,6.924771429873999],[117.12962609260047,6.92805288332454],[117.64339318244627,6.422166449403249],[117.68907514859231,5.987490139180154],[118.34769127815224,5.708695786965492],[119.18190392463997,5.407835598162207],[119.11069380094176,5.016128241389808],[118.43972700406408,4.966518866389606],[118.6183207540648,4.478202419447555],[117.88203494677018,4.137551377779516]],[[114.20401655482837,4.5258739282368055],[114.59996137904872,4.900011298029966],[115.45071048386981,5.447729803891534]]]}
